CCSDS_OMM_VERS = 2.0
CREATION_DATE  = 
ORIGINATOR     = 

OBJECT_NAME    = ISS (NAUKA)
OBJECT_ID      = 2021-066A
CENTER_NAME    = EARTH
REF_FRAME      = TEME
TIME_SYSTEM    = UTC
MEAN_ELEMENT_THEORY = SGP/SGP4

EPOCH          = 2025-11-25T21:35:15.221472
MEAN_MOTION    = 15.49084902
ECCENTRICITY   = .00038342
INCLINATION    = 51.6312
RA_OF_ASC_NODE = 225.8381
ARG_OF_PERICENTER = 168.1565
MEAN_ANOMALY   = 191.9514

EPHEMERIS_TYPE = 0
CLASSIFICATION_TYPE = U
NORAD_CAT_ID   = 49044
ELEMENT_SET_NO = 999
REV_AT_EPOCH   = 23044
BSTAR          = .23568474E-3
MEAN_MOTION_DOT = .12595E-3
MEAN_MOTION_DDOT = 0

CCSDS_OMM_VERS = 2.0
CREATION_DATE  = 
ORIGINATOR     = 

OBJECT_NAME    = CSS (WENTIAN)
OBJECT_ID      = 2022-085A
CENTER_NAME    = EARTH
REF_FRAME      = TEME
TIME_SYSTEM    = UTC
MEAN_ELEMENT_THEORY = SGP/SGP4

EPOCH          = 2025-11-25T20:43:03.961920
MEAN_MOTION    = 15.58266701
ECCENTRICITY   = .00107817
INCLINATION    = 41.4666
RA_OF_ASC_NODE = 119.0886
ARG_OF_PERICENTER = 270.4093
MEAN_ANOMALY   = 89.5510

EPHEMERIS_TYPE = 0
CLASSIFICATION_TYPE = U
NORAD_CAT_ID   = 53239
ELEMENT_SET_NO = 999
REV_AT_EPOCH   = 17384
BSTAR          = .35414492E-3
MEAN_MOTION_DOT = .2741E-3
MEAN_MOTION_DDOT = 0

CCSDS_OMM_VERS = 2.0
CREATION_DATE  = 
ORIGINATOR     = 

OBJECT_NAME    = CSS (MENGTIAN)
OBJECT_ID      = 2022-143A
CENTER_NAME    = EARTH
REF_FRAME      = TEME
TIME_SYSTEM    = UTC
MEAN_ELEMENT_THEORY = SGP/SGP4

EPOCH          = 2025-11-25T20:43:03.961920
MEAN_MOTION    = 15.58266701
ECCENTRICITY   = .00107817
INCLINATION    = 41.4666
RA_OF_ASC_NODE = 119.0886
ARG_OF_PERICENTER = 270.4093
MEAN_ANOMALY   = 89.5510

EPHEMERIS_TYPE = 0
CLASSIFICATION_TYPE = U
NORAD_CAT_ID   = 54216
ELEMENT_SET_NO = 999
REV_AT_EPOCH   = 15864
BSTAR          = .35414492E-3
MEAN_MOTION_DOT = .2741E-3
MEAN_MOTION_DDOT = 0

CCSDS_OMM_VERS = 2.0
CREATION_DATE  = 
ORIGINATOR     = 

OBJECT_NAME    = SOYUZ-MS 27
OBJECT_ID      = 2025-072A
CENTER_NAME    = EARTH
REF_FRAME      = TEME
TIME_SYSTEM    = UTC
MEAN_ELEMENT_THEORY = SGP/SGP4

EPOCH          = 2025-11-25T21:35:15.221472
MEAN_MOTION    = 15.49084902
ECCENTRICITY   = .00038342
INCLINATION    = 51.6312
RA_OF_ASC_NODE = 225.8381
ARG_OF_PERICENTER = 168.1565
MEAN_ANOMALY   = 191.9514

EPHEMERIS_TYPE = 0
CLASSIFICATION_TYPE = U
NORAD_CAT_ID   = 63520
ELEMENT_SET_NO = 999
REV_AT_EPOCH   = 2020
BSTAR          = .23568474E-3
MEAN_MOTION_DOT = .12595E-3
MEAN_MOTION_DDOT = 0

CCSDS_OMM_VERS = 2.0
CREATION_DATE  = 
ORIGINATOR     = 

OBJECT_NAME    = SHENZHOU-20 (SZ-20)
OBJECT_ID      = 2025-082A
CENTER_NAME    = EARTH
REF_FRAME      = TEME
TIME_SYSTEM    = UTC
MEAN_ELEMENT_THEORY = SGP/SGP4

EPOCH          = 2025-11-25T20:43:03.961920
MEAN_MOTION    = 15.58266701
ECCENTRICITY   = .00107817
INCLINATION    = 41.4666
RA_OF_ASC_NODE = 119.0886
ARG_OF_PERICENTER = 270.4093
MEAN_ANOMALY   = 89.5510

EPHEMERIS_TYPE = 0
CLASSIFICATION_TYPE = U
NORAD_CAT_ID   = 63632
ELEMENT_SET_NO = 999
REV_AT_EPOCH   = 25530
BSTAR          = .35414492E-3
MEAN_MOTION_DOT = .2741E-3
MEAN_MOTION_DDOT = 0

CCSDS_OMM_VERS = 2.0
CREATION_DATE  = 
ORIGINATOR     = 

OBJECT_NAME    = PROGRESS-MS 31
OBJECT_ID      = 2025-146A
CENTER_NAME    = EARTH
REF_FRAME      = TEME
TIME_SYSTEM    = UTC
MEAN_ELEMENT_THEORY = SGP/SGP4

EPOCH          = 2025-11-25T21:35:15.221472
MEAN_MOTION    = 15.49084902
ECCENTRICITY   = .00038342
INCLINATION    = 51.6312
RA_OF_ASC_NODE = 225.8381
ARG_OF_PERICENTER = 168.1565
MEAN_ANOMALY   = 191.9514

EPHEMERIS_TYPE = 0
CLASSIFICATION_TYPE = U
NORAD_CAT_ID   = 64751
ELEMENT_SET_NO = 999
REV_AT_EPOCH   = 675
BSTAR          = .23568474E-3
MEAN_MOTION_DOT = .12595E-3
MEAN_MOTION_DDOT = 0

CCSDS_OMM_VERS = 2.0
CREATION_DATE  = 
ORIGINATOR     = 

OBJECT_NAME    = TIANZHOU-9
OBJECT_ID      = 2025-149A
CENTER_NAME    = EARTH
REF_FRAME      = TEME
TIME_SYSTEM    = UTC
MEAN_ELEMENT_THEORY = SGP/SGP4

EPOCH          = 2025-11-25T20:43:03.961920
MEAN_MOTION    = 15.58266701
ECCENTRICITY   = .00107817
INCLINATION    = 41.4666
RA_OF_ASC_NODE = 119.0886
ARG_OF_PERICENTER = 270.4093
MEAN_ANOMALY   = 89.5510

EPHEMERIS_TYPE = 0
CLASSIFICATION_TYPE = U
NORAD_CAT_ID   = 64786
ELEMENT_SET_NO = 999
REV_AT_EPOCH   = 25530
BSTAR          = .35414492E-3
MEAN_MOTION_DOT = .2741E-3
MEAN_MOTION_DDOT = 0

CCSDS_OMM_VERS = 2.0
CREATION_DATE  = 
ORIGINATOR     = 

OBJECT_NAME    = CREW DRAGON 11
OBJECT_ID      = 2025-166A
CENTER_NAME    = EARTH
REF_FRAME      = TEME
TIME_SYSTEM    = UTC
MEAN_ELEMENT_THEORY = SGP/SGP4

EPOCH          = 2025-11-25T21:35:15.221472
MEAN_MOTION    = 15.49084902
ECCENTRICITY   = .00038342
INCLINATION    = 51.6312
RA_OF_ASC_NODE = 225.8381
ARG_OF_PERICENTER = 168.1565
MEAN_ANOMALY   = 191.9514

EPHEMERIS_TYPE = 0
CLASSIFICATION_TYPE = U
NORAD_CAT_ID   = 65077
ELEMENT_SET_NO = 999
REV_AT_EPOCH   = 214
BSTAR          = .23568474E-3
MEAN_MOTION_DOT = .12595E-3
MEAN_MOTION_DDOT = 0

CCSDS_OMM_VERS = 2.0
CREATION_DATE  = 
ORIGINATOR     = 

OBJECT_NAME    = DRAGON CRS-33
OBJECT_ID      = 2025-186A
CENTER_NAME    = EARTH
REF_FRAME      = TEME
TIME_SYSTEM    = UTC
MEAN_ELEMENT_THEORY = SGP/SGP4

EPOCH          = 2025-11-25T21:35:15.221472
MEAN_MOTION    = 15.49084902
ECCENTRICITY   = .00038342
INCLINATION    = 51.6312
RA_OF_ASC_NODE = 225.8381
ARG_OF_PERICENTER = 168.1565
MEAN_ANOMALY   = 191.9514

EPHEMERIS_TYPE = 0
CLASSIFICATION_TYPE = U
NORAD_CAT_ID   = 65304
ELEMENT_SET_NO = 999
REV_AT_EPOCH   = 11
BSTAR          = .23568474E-3
MEAN_MOTION_DOT = .12595E-3
MEAN_MOTION_DDOT = 0

