ISS (NAUKA)             
1 49044U 21066A   25329.89948173  .00012595  00000+0  23568-3 0  9994
2 49044  51.6312 225.8381 0003834 168.1565 191.9514 15.49084902230445
CSS (WENTIAN)           
1 53239U 22085A   25329.86324030  .00027410  00000+0  35414-3 0  9999
2 53239  41.4666 119.0886 0010781 270.4093  89.5510 15.58266701173848
CSS (MENGTIAN)          
1 54216U 22143A   25329.86324030  .00027410  00000+0  35414-3 0  9990
2 54216  41.4666 119.0886 0010781 270.4093  89.5510 15.58266701158645
SOYUZ-MS 27             
1 63520U 25072A   25329.89948173  .00012595  00000+0  23568-3 0  9990
2 63520  51.6312 225.8381 0003834 168.1565 191.9514 15.49084902 20201
SHENZHOU-20 (SZ-20)     
1 63632U 25082A   25329.86324030  .00027410  00000+0  35414-3 0  9997
2 63632  41.4666 119.0886 0010781 270.4093  89.5510 15.58266701255308
PROGRESS-MS 31          
1 64751U 25146A   25329.89948173  .00012595  00000+0  23568-3 0  9999
2 64751  51.6312 225.8381 0003834 168.1565 191.9514 15.49084902  6752
TIANZHOU-9              
1 64786U 25149A   25329.86324030  .00027410  00000+0  35414-3 0  9992
2 64786  41.4666 119.0886 0010781 270.4093  89.5510 15.58266701255309
CREW DRAGON 11          
1 65077U 25166A   25329.89948173  .00012595  00000+0  23568-3 0  9993
2 65077  51.6312 225.8381 0003834 168.1565 191.9514 15.49084902  2143
DRAGON CRS-33           
1 65304U 25186A   25329.89948173  .00012595  00000+0  23568-3 0  9998
2 65304  51.6312 225.8381 0003834 168.1565 191.9514 15.49084902   111
